IRIDIUM 166             
1 43570U 18061B   25273.75613737  .00000463  00000+0  15816-3 0  9999
2 43570  86.4033 165.1822 0002187  77.5549 282.5891 14.34218434376213
IRIDIUM 158             
1 43571U 18061C   25274.07326837  .00000230  00000+0  75213-4 0  9998
2 43571  86.4034 165.0597 0002283  86.6373 273.5084 14.34218462376222
IRIDIUM 165             
1 43572U 18061D   25274.09863608  .00000503  00000+0  17270-3 0  9994
2 43572  86.4034 165.0907 0002100  80.3823 279.7610 14.34216158376253
IRIDIUM 155             
1 43573U 18061E   25274.13035228  .00000153  00000+0  47480-4 0  9997
2 43573  86.4029 164.9596 0002307  82.1329 278.0128 14.34218550376221
IRIDIUM 154             
1 43574U 18061F   25273.41363405  .00000406  00000+0  13774-3 0  9998
2 43574  86.4035 165.3786 0002064  82.0603 278.0828 14.34220642376175
IRIDIUM 163             
1 43575U 18061G   25274.09229669  .00000140  00000+0  42836-4 0  9994
2 43575  86.4031 165.0195 0002183  88.7708 271.3738 14.34218502376240
IRIDIUM 156             
1 43576U 18061H   25274.06691679  .00000374  00000+0  12635-3 0  9998
2 43576  86.4033 165.0371 0002395  78.0253 282.1211 14.34216363376239
IRIDIUM 164             
1 43577U 18061J   25273.97812986 -.00000031  00000+0 -18262-4 0  9999
2 43577  86.4035 165.1098 0001977  77.2702 282.8715 14.34218004376267
